0 INTELSAT 3-F4
1 03947U 69045A   13280.23144838 -.00000119  00000-0  10000-3 0  6672
2 03947 014.0595 326.2557 0020284 334.7829 025.1134 00.90044293117445
0 INTELSAT 3-F4
1 03947U 69045A   13282.45250086 -.00000144  00000-0  10000-3 0  6680
2 03947 014.0570 326.2380 0020303 334.8898 025.0019 00.90044655117466
0 INTELSAT 3-F4
1 03947U 69045A   13288.00513822 -.00000144  00000-0  10000-3 0  6698
2 03947 014.0506 326.1944 0020614 334.8730 025.0007 00.90044343117517
0 INTELSAT 3-F4
1 03947U 69045A   13290.22619185 -.00000140  00000-0  10000-3 0  6702
2 03947 014.0480 326.1764 0020829 334.8365 025.0215 00.90044210117536
0 INTELSAT 3-F4
1 03947U 69045A   13293.55779357 -.00000128  00000-0  10000-3 0  6716
2 03947 014.0441 326.1494 0021071 334.0326 025.7956 00.90043465117565
0 INTELSAT 3-F4
1 03947U 69045A   13293.55786898 -.00000128  00000-0  10000-3 0  6725
2 03947 014.0439 326.1475 0021631 334.3084 025.5592 00.90043965117566
